IRIDIUM 159             
1 43578U 18061K   24135.93861824  .00000688  00000+0  23840-3 0  9990
2 43578  86.4001  15.6785 0002437  88.0614 272.0861 14.34227701303983
IRIDIUM 180             
1 43922U 19002A   24135.93813743  .00000157  00000+0  48938-4 0  9993
2 43922  86.3939 312.5719 0002178  89.9085 270.2360 14.34218292279593
IRIDIUM 176             
1 43923U 19002B   24135.47393702  .00001049  00000+0  16247-3 0  9999
2 43923  86.6063 312.7906 0002559  92.3994 267.7516 14.72256823286883
IRIDIUM 168             
1 43924U 19002C   24135.93179276  .00000078  00000+0  20662-4 0  9997
2 43924  86.3937 312.6305 0002158  93.0947 267.0495 14.34217013279577
IRIDIUM 173             
1 43925U 19002D   24135.91910207  .00000307  00000+0  10260-3 0  9990
2 43925  86.3934 312.5558 0002234  90.9426 269.2025 14.34219392279550
IRIDIUM 169             
1 43926U 19002E   24135.94717705  .00000967  00000+0  30948-3 0  9999
2 43926  86.4230 344.1650 0002676  35.8383 324.2994 14.38623592280492
IRIDIUM 172             
1 43927U 19002F   24135.91276157  .00000238  00000+0  78042-4 0  9997
2 43927  86.3938 312.5641 0002190  92.3470 267.7976 14.34216272279568
IRIDIUM 175             
1 43928U 19002G   24135.94381750  .00004161  00000+0  65597-3 0  9996
2 43928  86.1477 287.6014 0002196  88.6971 271.4497 14.72232423286949
